EDDA-1                  
1 69018U 26100AQ  26129.83337963 -.00055972  00000+0 -26061-2 0  9991
2 69018  97.4078  28.3459 0005574 138.4687 130.0740 15.20135886  1308
