{
  "norad_id": 69018,
  "name": "EDDA-1",
  "history": [
    {
      "epoch": "2026-05-09T20:00:04.000032Z",
      "apogee_km": 509.2672657271187,
      "perigee_km": 501.59346482830733,
      "latitude_deg": -82.50189672068686,
      "longitude_deg": -38.55177321455921,
      "height_km": 536.2919337971575,
      "semi_major_axis_km": 6883.567365277713,
      "eccentricity": 0.0005574,
      "inclination_deg": 97.4078,
      "raan_deg": 28.3459,
      "arg_perigee_deg": 138.4687,
      "mean_anomaly_deg": 130.074,
      "mean_motion_rev_day": 15.20135886
    }
  ]
}